[
  {
    "name": "ONEWEB-0164",
    "noradId": "48063",
    "line1": "1 48063U 21025X   26156.44097640  .00000265  00000+0  69109-3 0  9995",
    "line2": "2 48063  87.8949 322.5595 0001791  92.5836 267.5498 13.13470008252041"
  },
  {
    "name": "ONEWEB-0167",
    "noradId": "48064",
    "line1": "1 48064U 21025Y   26156.84978788  .00000086  00000+0  20029-3 0  9990",
    "line2": "2 48064  87.8944 322.4887 0001297 114.0824 246.0441 13.13471330252081"
  },
  {
    "name": "ONEWEB-0166",
    "noradId": "48065",
    "line1": "1 48065U 21025Z   26157.17735253 -.00000300  00000+0 -85638-3 0  9994",
    "line2": "2 48065  87.8956 322.3942 0001972  97.5810 262.5543 13.13470720252208"
  },
  {
    "name": "ONEWEB-0151",
    "noradId": "48066",
    "line1": "1 48066U 21025AA  26157.17904394 -.00000229  00000+0 -66299-3 0  9991",
    "line2": "2 48066  87.8946 322.4112 0001667  96.3250 263.8069 13.13470001252146"
  },
  {
    "name": "ONEWEB-0170",
    "noradId": "48067",
    "line1": "1 48067U 21025AB  26157.18751209 -.00000218  00000+0 -63245-3 0  9994",
    "line2": "2 48067  87.8944 322.4112 0001425  85.9814 274.1478 13.13469901252109"
  },
  {
    "name": "ONEWEB-0168",
    "noradId": "48068",
    "line1": "1 48068U 21025AC  26157.17227571 -.00000234  00000+0 -67475-3 0  9991",
    "line2": "2 48068  87.8953 322.4134 0001850  99.8491 260.2848 13.13469208252119"
  },
  {
    "name": "ONEWEB-0173",
    "noradId": "48069",
    "line1": "1 48069U 21025AD  26156.85910461 -.00000192  00000+0 -56204-3 0  9994",
    "line2": "2 48069  87.8948 322.4782 0001679 106.9323 253.1990 13.13468986252319"
  },
  {
    "name": "ONEWEB-0171",
    "noradId": "48070",
    "line1": "1 48070U 21025AE  26156.89635206  .00000107  00000+0  25943-3 0  9991",
    "line2": "2 48070  87.8964 322.4780 0001494  90.3908 269.7393 13.13469878252138"
  },
  {
    "name": "ONEWEB-0172",
    "noradId": "48071",
    "line1": "1 48071U 21025AF  26157.18073982 -.00000246  00000+0 -70902-3 0  9993",
    "line2": "2 48071  87.8952 322.4117 0001662 100.3396 259.7921 13.13470742253061"
  },
  {
    "name": "ONEWEB-0174",
    "noradId": "48072",
    "line1": "1 48072U 21025AG  26156.85742046 -.00000010  00000+0 -61821-4 0  9991",
    "line2": "2 48072  87.8953 322.4760 0001903  96.3354 263.7992 13.13469754252347"
  },
  {
    "name": "ONEWEB-0175",
    "noradId": "48073",
    "line1": "1 48073U 21025AH  26156.88788809 -.00000004  00000+0 -44964-4 0  9994",
    "line2": "2 48073  87.8954 322.4538 0001463  92.9088 267.2208 13.13470714252009"
  },
  {
    "name": "ONEWEB-0177",
    "noradId": "48074",
    "line1": "1 48074U 21025AJ  26156.44267326  .00000243  00000+0  63118-3 0  9997",
    "line2": "2 48074  87.8950 322.5611 0001879 100.5906 259.5435 13.13470533252134"
  },
  {
    "name": "ONEWEB-0178",
    "noradId": "48075",
    "line1": "1 48075U 21025AK  26157.14702038  .00000230  00000+0  59396-3 0  9999",
    "line2": "2 48075  87.8941 322.4348 0001540  99.6159 260.5144 13.13470364252270"
  },
  {
    "name": "ONEWEB-0108",
    "noradId": "48076",
    "line1": "1 48076U 21025AL  26157.18243481 -.00000266  00000+0 -76418-3 0  9991",
    "line2": "2 48076  87.8960 322.4041 0001985  90.5093 269.6263 13.13469816252207"
  },
  {
    "name": "ONEWEB-0169",
    "noradId": "48077",
    "line1": "1 48077U 21025AM  26156.83371496  .00000459  00000+0  12222-2 0  9995",
    "line2": "2 48077  87.8947 322.4830 0001888  96.0255 264.1089 13.13470319250813"
  },
  {
    "name": "ONEWEB-0176",
    "noradId": "48210",
    "line1": "1 48210U 21031A   26157.06579745  .00000244  00000+0  62288-3 0  9994",
    "line2": "2 48210  87.8935 291.9162 0001668  99.5834 260.5484 13.14502772246852"
  },
  {
    "name": "ONEWEB-0184",
    "noradId": "48211",
    "line1": "1 48211U 21031B   26157.11494921  .00000019  00000+0  15441-4 0  9993",
    "line2": "2 48211  87.8963 291.9068 0001123 114.8328 245.2919 13.14502309246831"
  },
  {
    "name": "ONEWEB-0179",
    "noradId": "48212",
    "line1": "1 48212U 21031C   26157.07443353  .00000065  00000+0  15996-4 0  9998",
    "line2": "2 48212  87.8982 289.6482 0218762 293.8273  64.0124 14.25515272247464"
  },
  {
    "name": "ONEWEB-0180",
    "noradId": "48213",
    "line1": "1 48213U 21031D   26157.11812591  .00000113  00000+0  27060-3 0  9996",
    "line2": "2 48213  87.8958 291.9025 0001943 113.9039 246.2295 13.14502274246760"
  },
  {
    "name": "ONEWEB-0218",
    "noradId": "48214",
    "line1": "1 48214U 21031E   26157.06420509  .00000298  00000+0  76970-3 0  9993",
    "line2": "2 48214  87.8963 291.9119 0001336 126.4283 233.6970 13.14501739246919"
  },
  {
    "name": "ONEWEB-0209",
    "noradId": "48215",
    "line1": "1 48215U 21031F   26157.12921745  .00000272  00000+0  70041-3 0  9994",
    "line2": "2 48215  87.8951 291.9172 0001977 106.0182 254.1166 13.14504720246928"
  },
  {
    "name": "ONEWEB-0198",
    "noradId": "48216",
    "line1": "1 48216U 21031G   26157.11350587  .00000009  00000+0 -93912-5 0  9997",
    "line2": "2 48216  87.8946 291.9204 0001788 114.0753 246.0564 13.14502033247032"
  },
  {
    "name": "ONEWEB-0189",
    "noradId": "48217",
    "line1": "1 48217U 21031H   26157.12605755  .00000242  00000+0  61830-3 0  9999",
    "line2": "2 48217  87.8958 291.9028 0001784 110.6617 249.4704 13.14502242246772"
  },
  {
    "name": "ONEWEB-0196",
    "noradId": "48218",
    "line1": "1 48218U 21031J   26157.10385292 -.00000060  00000+0 -19737-3 0  9998",
    "line2": "2 48218  87.8956 291.9162 0001877 106.0027 254.1310 13.14502372246777"
  },
  {
    "name": "ONEWEB-0183",
    "noradId": "48219",
    "line1": "1 48219U 21031K   26156.85012919 -.00000039  00000+0 -14088-3 0  9993",
    "line2": "2 48219  87.8957 291.9652 0002034  98.2547 261.8814 13.14502669246838"
  },
  {
    "name": "ONEWEB-0185",
    "noradId": "48220",
    "line1": "1 48220U 21031L   26157.10463494 -.00000047  00000+0 -16018-3 0  9996",
    "line2": "2 48220  87.8961 291.9073 0002234 106.0176 254.1200 13.14502521246796"
  },
  {
    "name": "ONEWEB-0187",
    "noradId": "48221",
    "line1": "1 48221U 21031M   26156.85633263 -.00000164  00000+0 -47800-3 0  9994",
    "line2": "2 48221  87.8949 291.9733 0001985 106.3141 253.8207 13.14502069246771"
  },
  {
    "name": "ONEWEB-0192",
    "noradId": "48222",
    "line1": "1 48222U 21031N   26157.13080224  .00000212  00000+0  53683-3 0  9998",
    "line2": "2 48222  87.8951 291.9090 0001766 102.5589 257.5738 13.14504120246727"
  },
  {
    "name": "ONEWEB-0219",
    "noradId": "48223",
    "line1": "1 48223U 21031P   26157.11018617 -.00000105  00000+0 -31778-3 0  9998",
    "line2": "2 48223  87.8953 291.9050 0002052 105.8160 254.3196 13.14503736246923"
  },
  {
    "name": "ONEWEB-0202",
    "noradId": "48224",
    "line1": "1 48224U 21031Q   26156.86281490 -.00000214  00000+0 -61179-3 0  9990",
    "line2": "2 48224  87.8956 291.9656 0001462 118.6618 241.4659 13.14502408246873"
  },
  {
    "name": "ONEWEB-0204",
    "noradId": "48225",
    "line1": "1 48225U 21031R   26157.12526510  .00000287  00000+0  74080-3 0  9999",
    "line2": "2 48225  87.8956 291.9086 0002189  97.9412 262.1966 13.14502014246806"
  },
  {
    "name": "ONEWEB-0205",
    "noradId": "48226",
    "line1": "1 48226U 21031S   26157.10067580 -.00000130  00000+0 -38489-3 0  9997",
    "line2": "2 48226  87.8968 291.9061 0002053 106.9928 253.1427 13.14503361246815"
  },
  {
    "name": "ONEWEB-0206",
    "noradId": "48227",
    "line1": "1 48227U 21031T   26157.07372607  .00000080  00000+0  18066-3 0  9994",
    "line2": "2 48227  87.8962 291.9133 0001816  94.2958 265.8379 13.14502738246765"
  },
  {
    "name": "ONEWEB-0182",
    "noradId": "48228",
    "line1": "1 48228U 21031U   26157.06896465  .00000153  00000+0  37837-3 0  9995",
    "line2": "2 48228  87.8958 291.9222 0002085  97.4329 262.7038 13.14501686246978"
  },
  {
    "name": "ONEWEB-0186",
    "noradId": "48229",
    "line1": "1 48229U 21031V   26157.08006099 -.00000033  00000+0 -12247-3 0  9991",
    "line2": "2 48229  87.8964 291.9096 0001901 102.7162 257.4180 13.14501717246925"
  },
  {
    "name": "ONEWEB-0181",
    "noradId": "48230",
    "line1": "1 48230U 21031W   26156.82951714  .00000276  00000+0  71084-3 0  9998",
    "line2": "2 48230  87.8948 291.9910 0001860 107.0589 253.0745 13.14502529246740"
  },
  {
    "name": "ONEWEB-0188",
    "noradId": "48231",
    "line1": "1 48231U 21031X   26156.86757243 -.00000141  00000+0 -41589-3 0  9994",
    "line2": "2 48231  87.8946 291.9813 0001870 101.9891 258.1449 13.14504019246654"
  },
  {
    "name": "ONEWEB-0220",
    "noradId": "48232",
    "line1": "1 48232U 21031Y   26157.13555343  .00000270  00000+0  69349-3 0  9998",
    "line2": "2 48232  87.8964 291.9005 0002078 107.4302 252.7056 13.14501539246958"
  },
  {
    "name": "ONEWEB-0165",
    "noradId": "48233",
    "line1": "1 48233U 21031Z   26157.08798777 -.00002901  00000+0 -78591-2 0  9996",
    "line2": "2 48233  87.8962 291.9240 0001864 109.6417 250.4914 13.14517244246904"
  },
  {
    "name": "ONEWEB-0199",
    "noradId": "48234",
    "line1": "1 48234U 21031AA  26157.07213764  .00000193  00000+0  48526-3 0  9999",
    "line2": "2 48234  87.8966 291.9117 0001871  94.3056 265.8288 13.14502893246806"
  },
  {
    "name": "ONEWEB-0203",
    "noradId": "48235",
    "line1": "1 48235U 21031AB  26157.13874181  .00000236  00000+0  60307-3 0  9992",
    "line2": "2 48235  87.8964 291.9022 0001718  99.5088 260.6236 13.14501861246824"
  },
  {
    "name": "ONEWEB-0197",
    "noradId": "48236",
    "line1": "1 48236U 21031AC  26157.11323367  .00000180  00000+0  45146-3 0  9998",
    "line2": "2 48236  87.8949 291.8944 0002189 100.6469 259.4907 13.14503114246734"
  },
  {
    "name": "ONEWEB-0194",
    "noradId": "48237",
    "line1": "1 48237U 21031AD  26157.09274822 -.00000278  00000+0 -78562-3 0  9995",
    "line2": "2 48237  87.8948 291.9188 0001710  93.5513 266.5813 13.14502244246901"
  }
]